IRIDIUM 150             
1 43257U 18030J   23305.80776777  .00000610  00000+0  21093-3 0  9999
2 43257  86.3958 331.0199 0002117 102.6618 257.4814 14.34215860292797
IRIDIUM 143             
1 43258U 18030K   23306.13759591  .00000368  00000+0  12423-3 0  9999
2 43258  86.3963 330.9365 0002386  96.7889 263.3578 14.34213463292800
IRIDIUM 161             
1 43478U 18047C   23305.94738559  .00000209  00000+0  56145-4 0  9994
2 43478  86.4462 128.9895 0002013  89.0795 271.0637 14.43275187286929
IRIDIUM 152             
1 43479U 18047D   23306.04055600  .00000137  00000+0  41677-4 0  9990
2 43479  86.3936 128.8103 0002317  91.3271 268.8190 14.34219603285162
IRIDIUM 147             
1 43480U 18047E   23305.90733769  .00000029  00000+0  32935-5 0  9993
2 43480  86.3937 128.8544 0001893  83.9711 276.1701 14.34215760285135
IRIDIUM 110             
1 43481U 18047F   23305.91367754  .00000155  00000+0  48196-4 0  9997
2 43481  86.3939 128.9185 0001770  85.7120 274.4278 14.34218043285124
IRIDIUM 162             
1 43482U 18047G   23305.94113894  .00000203  00000+0  54483-4 0  9995
2 43482  86.4461 128.8953 0002031  88.8246 271.3187 14.43280623286918
IRIDIUM 160             
1 43569U 18061A   23305.92928625  .00000283  00000+0  93917-4 0  9994
2 43569  86.3930  97.2687 0002277  85.7533 274.3923 14.34220217276029
